STARLINK-36548          
1 67617U 26020A   26076.83335647 -.01909155  00000+0 -41922-1 0  9997
2 67617  42.9994  94.5303 0001004 257.8501 356.3069 15.46462343  6043
STARLINK-36601          
1 67618U 26020B   26076.83335647 -.02189494  00000+0 -68432-1 0  9990
2 67618  42.9999  93.9642 0001186 269.4971 209.2112 15.35871291  6060
STARLINK-36119          
1 67619U 26020C   26076.83335647 -.01826991  00000+0 -44846-1 0  9993
2 67619  42.9998  94.2646 0001135 259.6415 101.9224 15.43083746  5831
STARLINK-36607          
1 67620U 26020D   26076.83335647 -.01890137  00000+0 -44794-1 0  9990
2 67620  43.0000  93.7317 0000919 293.8817 281.1365 15.44224191  6013
STARLINK-36615          
1 67621U 26020E   26076.83335647 -.02260063  00000+0 -79366-1 0  9994
2 67621  42.9992  94.1391 0001146 269.9202 136.5742 15.32353758  6015
STARLINK-36614          
1 67622U 26020F   26076.83335647 -.01855531  00000+0 -49114-1 0  9992
2 67622  42.9994  94.0558 0001676 283.5736 161.6028 15.40897871  6041
STARLINK-36600          
1 67623U 26020G   26076.83335647 -.01940856  00000+0 -42390-1 0  9997
2 67623  43.0002  94.3393 0001516 254.9507  75.1298 15.46665488  5887
STARLINK-36439          
1 67624U 26020H   26076.76456429  .00080844  00000+0  14213-2 0  9995
2 67624  42.9997  94.6054 0008572  53.6641 306.5009 15.49498942  7344
STARLINK-36438          
1 67625U 26020J   26076.83335647 -.01857391  00000+0 -45466-1 0  9997
2 67625  42.9994  94.1152 0001641 275.7083 145.4968 15.43214606  5735
STARLINK-36436          
1 67626U 26020K   26076.83335647 -.01897562  00000+0 -39274-1 0  9992
2 67626  43.0002  93.9965 0001741 273.1407 193.4984 15.48123278  6067
STARLINK-36502          
1 67627U 26020L   26076.40811602  .00070848  00000+0  11995-2 0  9994
2 67627  43.0018  97.0964 0004879 242.5346 117.5019 15.50639788  7288
STARLINK-36532          
1 67628U 26020M   26076.83335647 -.01810948  00000+0 -45038-1 0  9992
2 67628  42.9999  93.8776 0001665 284.6453 229.8039 15.42666322  6065
STARLINK-36367          
1 67629U 26020N   26076.83335647 -.01991636  00000+0 -46548-1 0  9994
2 67629  43.0030  93.9241 0001091 287.7350 208.6233 15.44804886  6001
STARLINK-36416          
1 67630U 26020P   26076.83335647 -.01858130  00000+0 -48371-1 0  9993
2 67630  42.9991  94.0307 0001362 281.4395 173.6550 15.41400453  5734
STARLINK-36527          
1 67631U 26020Q   26076.83335647 -.02264853  00000+0 -79195-1 0  9996
2 67631  43.0000  94.4846 0001579 280.0249 345.8949 15.32492787  6011
STARLINK-36633          
1 67632U 26020R   26076.83335647 -.01868856  00000+0 -50065-1 0  9994
2 67632  42.9995  94.2528 0001653 260.2596 102.6314 15.40562972  6014
STARLINK-36637          
1 67633U 26020S   26076.83335647 -.01864961  00000+0 -47003-1 0  9996
2 67633  42.9993  93.9975 0001313 283.2143 184.8768 15.42371877  5862
