[{"OBJECT_NAME":"STARLINK-36548","OBJECT_ID":"2026-020A","EPOCH":"2026-03-17T20:00:01.999008","MEAN_MOTION":15.46462343,"ECCENTRICITY":0.0001004,"INCLINATION":42.9994,"RA_OF_ASC_NODE":94.5303,"ARG_OF_PERICENTER":257.8501,"MEAN_ANOMALY":356.3069,"EPHEMERIS_TYPE":0,"CLASSIFICATION_TYPE":"U","NORAD_CAT_ID":67617,"ELEMENT_SET_NO":999,"REV_AT_EPOCH":604,"BSTAR":-0.041922,"MEAN_MOTION_DOT":-0.01909155,"MEAN_MOTION_DDOT":0},{"OBJECT_NAME":"STARLINK-36601","OBJECT_ID":"2026-020B","EPOCH":"2026-03-17T20:00:01.999008","MEAN_MOTION":15.35871291,"ECCENTRICITY":0.0001186,"INCLINATION":42.9999,"RA_OF_ASC_NODE":93.9642,"ARG_OF_PERICENTER":269.4971,"MEAN_ANOMALY":209.2112,"EPHEMERIS_TYPE":0,"CLASSIFICATION_TYPE":"U","NORAD_CAT_ID":67618,"ELEMENT_SET_NO":999,"REV_AT_EPOCH":606,"BSTAR":-0.068432,"MEAN_MOTION_DOT":-0.02189494,"MEAN_MOTION_DDOT":0},{"OBJECT_NAME":"STARLINK-36119","OBJECT_ID":"2026-020C","EPOCH":"2026-03-17T20:00:01.999008","MEAN_MOTION":15.43083746,"ECCENTRICITY":0.0001135,"INCLINATION":42.9998,"RA_OF_ASC_NODE":94.2646,"ARG_OF_PERICENTER":259.6415,"MEAN_ANOMALY":101.9224,"EPHEMERIS_TYPE":0,"CLASSIFICATION_TYPE":"U","NORAD_CAT_ID":67619,"ELEMENT_SET_NO":999,"REV_AT_EPOCH":583,"BSTAR":-0.044846,"MEAN_MOTION_DOT":-0.01826991,"MEAN_MOTION_DDOT":0},{"OBJECT_NAME":"STARLINK-36607","OBJECT_ID":"2026-020D","EPOCH":"2026-03-17T20:00:01.999008","MEAN_MOTION":15.44224191,"ECCENTRICITY":9.19e-5,"INCLINATION":43,"RA_OF_ASC_NODE":93.7317,"ARG_OF_PERICENTER":293.8817,"MEAN_ANOMALY":281.1365,"EPHEMERIS_TYPE":0,"CLASSIFICATION_TYPE":"U","NORAD_CAT_ID":67620,"ELEMENT_SET_NO":999,"REV_AT_EPOCH":601,"BSTAR":-0.044794,"MEAN_MOTION_DOT":-0.01890137,"MEAN_MOTION_DDOT":0},{"OBJECT_NAME":"STARLINK-36615","OBJECT_ID":"2026-020E","EPOCH":"2026-03-17T20:00:01.999008","MEAN_MOTION":15.32353758,"ECCENTRICITY":0.0001146,"INCLINATION":42.9992,"RA_OF_ASC_NODE":94.1391,"ARG_OF_PERICENTER":269.9202,"MEAN_ANOMALY":136.5742,"EPHEMERIS_TYPE":0,"CLASSIFICATION_TYPE":"U","NORAD_CAT_ID":67621,"ELEMENT_SET_NO":999,"REV_AT_EPOCH":601,"BSTAR":-0.079366,"MEAN_MOTION_DOT":-0.02260063,"MEAN_MOTION_DDOT":0},{"OBJECT_NAME":"STARLINK-36614","OBJECT_ID":"2026-020F","EPOCH":"2026-03-17T20:00:01.999008","MEAN_MOTION":15.40897871,"ECCENTRICITY":0.0001676,"INCLINATION":42.9994,"RA_OF_ASC_NODE":94.0558,"ARG_OF_PERICENTER":283.5736,"MEAN_ANOMALY":161.6028,"EPHEMERIS_TYPE":0,"CLASSIFICATION_TYPE":"U","NORAD_CAT_ID":67622,"ELEMENT_SET_NO":999,"REV_AT_EPOCH":604,"BSTAR":-0.049114,"MEAN_MOTION_DOT":-0.01855531,"MEAN_MOTION_DDOT":0},{"OBJECT_NAME":"STARLINK-36600","OBJECT_ID":"2026-020G","EPOCH":"2026-03-17T20:00:01.999008","MEAN_MOTION":15.46665488,"ECCENTRICITY":0.0001516,"INCLINATION":43.0002,"RA_OF_ASC_NODE":94.3393,"ARG_OF_PERICENTER":254.9507,"MEAN_ANOMALY":75.1298,"EPHEMERIS_TYPE":0,"CLASSIFICATION_TYPE":"U","NORAD_CAT_ID":67623,"ELEMENT_SET_NO":999,"REV_AT_EPOCH":588,"BSTAR":-0.04239,"MEAN_MOTION_DOT":-0.01940856,"MEAN_MOTION_DDOT":0},{"OBJECT_NAME":"STARLINK-36439","OBJECT_ID":"2026-020H","EPOCH":"2026-03-17T18:20:58.354656","MEAN_MOTION":15.49498942,"ECCENTRICITY":0.0008572,"INCLINATION":42.9997,"RA_OF_ASC_NODE":94.6054,"ARG_OF_PERICENTER":53.6641,"MEAN_ANOMALY":306.5009,"EPHEMERIS_TYPE":0,"CLASSIFICATION_TYPE":"U","NORAD_CAT_ID":67624,"ELEMENT_SET_NO":999,"REV_AT_EPOCH":734,"BSTAR":0.0014213,"MEAN_MOTION_DOT":0.00080844,"MEAN_MOTION_DDOT":0},{"OBJECT_NAME":"STARLINK-36438","OBJECT_ID":"2026-020J","EPOCH":"2026-03-17T20:00:01.999008","MEAN_MOTION":15.43214606,"ECCENTRICITY":0.0001641,"INCLINATION":42.9994,"RA_OF_ASC_NODE":94.1152,"ARG_OF_PERICENTER":275.7083,"MEAN_ANOMALY":145.4968,"EPHEMERIS_TYPE":0,"CLASSIFICATION_TYPE":"U","NORAD_CAT_ID":67625,"ELEMENT_SET_NO":999,"REV_AT_EPOCH":573,"BSTAR":-0.045466,"MEAN_MOTION_DOT":-0.01857391,"MEAN_MOTION_DDOT":0},{"OBJECT_NAME":"STARLINK-36436","OBJECT_ID":"2026-020K","EPOCH":"2026-03-17T20:00:01.999008","MEAN_MOTION":15.48123278,"ECCENTRICITY":0.0001741,"INCLINATION":43.0002,"RA_OF_ASC_NODE":93.9965,"ARG_OF_PERICENTER":273.1407,"MEAN_ANOMALY":193.4984,"EPHEMERIS_TYPE":0,"CLASSIFICATION_TYPE":"U","NORAD_CAT_ID":67626,"ELEMENT_SET_NO":999,"REV_AT_EPOCH":606,"BSTAR":-0.039274,"MEAN_MOTION_DOT":-0.01897562,"MEAN_MOTION_DDOT":0},{"OBJECT_NAME":"STARLINK-36502","OBJECT_ID":"2026-020L","EPOCH":"2026-03-17T09:47:41.224128","MEAN_MOTION":15.50639788,"ECCENTRICITY":0.00048793,"INCLINATION":43.0018,"RA_OF_ASC_NODE":97.0964,"ARG_OF_PERICENTER":242.5346,"MEAN_ANOMALY":117.5019,"EPHEMERIS_TYPE":0,"CLASSIFICATION_TYPE":"U","NORAD_CAT_ID":67627,"ELEMENT_SET_NO":999,"REV_AT_EPOCH":728,"BSTAR":0.001199548,"MEAN_MOTION_DOT":0.00070848,"MEAN_MOTION_DDOT":0},{"OBJECT_NAME":"STARLINK-36532","OBJECT_ID":"2026-020M","EPOCH":"2026-03-17T20:00:01.999008","MEAN_MOTION":15.42666322,"ECCENTRICITY":0.0001665,"INCLINATION":42.9999,"RA_OF_ASC_NODE":93.8776,"ARG_OF_PERICENTER":284.6453,"MEAN_ANOMALY":229.8039,"EPHEMERIS_TYPE":0,"CLASSIFICATION_TYPE":"U","NORAD_CAT_ID":67628,"ELEMENT_SET_NO":999,"REV_AT_EPOCH":606,"BSTAR":-0.045038,"MEAN_MOTION_DOT":-0.01810948,"MEAN_MOTION_DDOT":0},{"OBJECT_NAME":"STARLINK-36367","OBJECT_ID":"2026-020N","EPOCH":"2026-03-17T20:00:01.999008","MEAN_MOTION":15.44804886,"ECCENTRICITY":0.0001091,"INCLINATION":43.003,"RA_OF_ASC_NODE":93.9241,"ARG_OF_PERICENTER":287.735,"MEAN_ANOMALY":208.6233,"EPHEMERIS_TYPE":0,"CLASSIFICATION_TYPE":"U","NORAD_CAT_ID":67629,"ELEMENT_SET_NO":999,"REV_AT_EPOCH":600,"BSTAR":-0.046548,"MEAN_MOTION_DOT":-0.01991636,"MEAN_MOTION_DDOT":0},{"OBJECT_NAME":"STARLINK-36416","OBJECT_ID":"2026-020P","EPOCH":"2026-03-17T20:00:01.999008","MEAN_MOTION":15.41400453,"ECCENTRICITY":0.0001362,"INCLINATION":42.9991,"RA_OF_ASC_NODE":94.0307,"ARG_OF_PERICENTER":281.4395,"MEAN_ANOMALY":173.655,"EPHEMERIS_TYPE":0,"CLASSIFICATION_TYPE":"U","NORAD_CAT_ID":67630,"ELEMENT_SET_NO":999,"REV_AT_EPOCH":573,"BSTAR":-0.048371,"MEAN_MOTION_DOT":-0.0185813,"MEAN_MOTION_DDOT":0},{"OBJECT_NAME":"STARLINK-36527","OBJECT_ID":"2026-020Q","EPOCH":"2026-03-17T20:00:01.999008","MEAN_MOTION":15.32492787,"ECCENTRICITY":0.0001579,"INCLINATION":43,"RA_OF_ASC_NODE":94.4846,"ARG_OF_PERICENTER":280.0249,"MEAN_ANOMALY":345.8949,"EPHEMERIS_TYPE":0,"CLASSIFICATION_TYPE":"U","NORAD_CAT_ID":67631,"ELEMENT_SET_NO":999,"REV_AT_EPOCH":601,"BSTAR":-0.079195,"MEAN_MOTION_DOT":-0.02264853,"MEAN_MOTION_DDOT":0},{"OBJECT_NAME":"STARLINK-36633","OBJECT_ID":"2026-020R","EPOCH":"2026-03-17T20:00:01.999008","MEAN_MOTION":15.40562972,"ECCENTRICITY":0.0001653,"INCLINATION":42.9995,"RA_OF_ASC_NODE":94.2528,"ARG_OF_PERICENTER":260.2596,"MEAN_ANOMALY":102.6314,"EPHEMERIS_TYPE":0,"CLASSIFICATION_TYPE":"U","NORAD_CAT_ID":67632,"ELEMENT_SET_NO":999,"REV_AT_EPOCH":601,"BSTAR":-0.050065,"MEAN_MOTION_DOT":-0.01868856,"MEAN_MOTION_DDOT":0},{"OBJECT_NAME":"STARLINK-36637","OBJECT_ID":"2026-020S","EPOCH":"2026-03-17T20:00:01.999008","MEAN_MOTION":15.42371877,"ECCENTRICITY":0.0001313,"INCLINATION":42.9993,"RA_OF_ASC_NODE":93.9975,"ARG_OF_PERICENTER":283.2143,"MEAN_ANOMALY":184.8768,"EPHEMERIS_TYPE":0,"CLASSIFICATION_TYPE":"U","NORAD_CAT_ID":67633,"ELEMENT_SET_NO":999,"REV_AT_EPOCH":586,"BSTAR":-0.047003,"MEAN_MOTION_DOT":-0.01864961,"MEAN_MOTION_DDOT":0}]
